[{"OBJECT_NAME":"STARLINK-4715","OBJECT_ID":"2022-111AE","EPOCH":"2026-03-09T20:19:13.100160","MEAN_MOTION":15.08838323,"ECCENTRICITY":0.00013678,"INCLINATION":53.217,"RA_OF_ASC_NODE":263.1661,"ARG_OF_PERICENTER":93.2402,"MEAN_ANOMALY":266.8747,"EPHEMERIS_TYPE":0,"CLASSIFICATION_TYPE":"U","NORAD_CAT_ID":53801,"ELEMENT_SET_NO":999,"REV_AT_EPOCH":19384,"BSTAR":8.302481e-6,"MEAN_MOTION_DOT":-1.56e-6,"MEAN_MOTION_DDOT":0},{"OBJECT_NAME":"UNKNOWN","OBJECT_ID":"","EPOCH":"2026-03-09T06:09:07.097760","MEAN_MOTION":14.23111444,"ECCENTRICITY":0.0420074,"INCLINATION":65.7569,"RA_OF_ASC_NODE":3.5198,"ARG_OF_PERICENTER":27.821,"MEAN_ANOMALY":334.4666,"EPHEMERIS_TYPE":0,"CLASSIFICATION_TYPE":"U","NORAD_CAT_ID":87271,"ELEMENT_SET_NO":999,"REV_AT_EPOCH":62467,"BSTAR":0.002777,"MEAN_MOTION_DOT":0.00015701,"MEAN_MOTION_DDOT":0}]
